start=new Date('2021-09-11T00:00:00.000Z').valueOf();
sats=[{"EPOCH":"2021-09-10T04:15:28.129824","TIME_SYSTEM":"UTC","REF_FRAME":"TEME","MEAN_ANOMALY":"298.3449","CENTER_NAME":"EARTH","TLE_LINE2":"2 45227  53.0552 175.6659 0001702  61.7712 298.3449 15.06397377 87018","PERIAPSIS":"546.043","NORAD_CAT_ID":"45227","APOAPSIS":"548.400","MEAN_ELEMENT_THEORY":"SGP4","REV_AT_EPOCH":"8701","RCS_SIZE":"LARGE","ECCENTRICITY":"0.00017020","ARG_OF_PERICENTER":"61.7712","INCLINATION":"53.0552","BSTAR":"0.00013555000000","TLE_LINE1":"1 45227U 20012BB  21253.17740891  .00001738  00000-0  13555-3 0  9996","OBJECT_ID":"2020-012BB","LAUNCH_DATE":"2020-02-17","COUNTRY_CODE":"US","OBJECT_NAME":"STARLINK-1221","GP_ID":"184449606","CLASSIFICATION_TYPE":"U","ELEMENT_SET_NO":"999","EPHEMERIS_TYPE":"0","OBJECT_TYPE":"PAYLOAD","MEAN_MOTION_DOT":"0.00001738","MEAN_MOTION_DDOT":"0.0000000000000","RA_OF_ASC_NODE":"175.6659","DECAY_DATE":null,"SEMIMAJOR_AXIS":"6925.357","PERIOD":"95.592","SITE":"AFETR","MEAN_MOTION":"15.06397377","FILE":"3112598"},{"TIME_SYSTEM":"UTC","REF_FRAME":"TEME","EPOCH":"2021-09-10T04:20:46.598496","CENTER_NAME":"EARTH","TLE_LINE2":"2 45228  53.0540 175.6345 0001910  66.0927 294.0262 15.06403585 87874","NORAD_CAT_ID":"45228","PERIAPSIS":"545.880","MEAN_ANOMALY":"294.0262","MEAN_ELEMENT_THEORY":"SGP4","APOAPSIS":"548.525","REV_AT_EPOCH":"8787","RCS_SIZE":"LARGE","BSTAR":"0.00018995000000","ECCENTRICITY":"0.00019100","ARG_OF_PERICENTER":"66.0927","INCLINATION":"53.0540","TLE_LINE1":"1 45228U 20012BC  21253.18109489  .00002549  00000-0  18995-3 0  9994","LAUNCH_DATE":"2020-02-17","OBJECT_ID":"2020-012BC","CLASSIFICATION_TYPE":"U","GP_ID":"184441054","ELEMENT_SET_NO":"999","COUNTRY_CODE":"US","OBJECT_NAME":"STARLINK-1222","OBJECT_TYPE":"PAYLOAD","EPHEMERIS_TYPE":"0","MEAN_MOTION_DDOT":"0.0000000000000","MEAN_MOTION_DOT":"0.00002549","DECAY_DATE":null,"RA_OF_ASC_NODE":"175.6345","SEMIMAJOR_AXIS":"6925.338","FILE":"3112362","MEAN_MOTION":"15.06403585","PERIOD":"95.592","SITE":"AFETR"},{"TLE_LINE2":"2 45229  53.0537 173.1137 0001901  57.8606 302.2567 15.06389909 87968","NORAD_CAT_ID":"45229","PERIAPSIS":"545.928","CENTER_NAME":"EARTH","MEAN_ANOMALY":"302.2567","REF_FRAME":"TEME","TIME_SYSTEM":"UTC","EPOCH":"2021-09-10T17:47:34.037088","REV_AT_EPOCH":"8796","APOAPSIS":"548.561","MEAN_ELEMENT_THEORY":"SGP4","BSTAR":"-0.00004250500000","ARG_OF_PERICENTER":"57.8606","INCLINATION":"53.0537","ECCENTRICITY":"0.00019010","RCS_SIZE":"LARGE","OBJECT_ID":"2020-012BD","LAUNCH_DATE":"2020-02-17","TLE_LINE1":"1 45229U 20012BD  21253.74136617 -.00000915  00000-0 -42505-4 0  9992","OBJECT_TYPE":"PAYLOAD","EPHEMERIS_TYPE":"0","ELEMENT_SET_NO":"999","GP_ID":"184471716","CLASSIFICATION_TYPE":"U","OBJECT_NAME":"STARLINK-1226","COUNTRY_CODE":"US","DECAY_DATE":null,"RA_OF_ASC_NODE":"173.1137","MEAN_MOTION_DDOT":"0.0000000000000","MEAN_MOTION_DOT":"-0.00000915","SEMIMAJOR_AXIS":"6925.379","MEAN_MOTION":"15.06389909","FILE":"3112758","SITE":"AFETR","PERIOD":"95.593"},{"TLE_LINE1":"1 45230U 20012BE  21253.80401621 -.00000062  00000-0  14766-4 0  9991","OBJECT_ID":"2020-012BE","LAUNCH_DATE":"2020-02-17","RCS_SIZE":"LARGE","ECCENTRICITY":"0.00021670","INCLINATION":"53.0546","ARG_OF_PERICENTER":"64.9434","BSTAR":"0.00001476600000","APOAPSIS":"548.703","MEAN_ELEMENT_THEORY":"SGP4","REV_AT_EPOCH":"8809","EPOCH":"2021-09-10T19:17:47.000544","TIME_SYSTEM":"UTC","REF_FRAME":"TEME","MEAN_ANOMALY":"295.1780","CENTER_NAME":"EARTH","NORAD_CAT_ID":"45230","TLE_LINE2":"2 45230  53.0546 172.8434 0002167  64.9434 295.1780 15.06403779 88093","PERIAPSIS":"545.701","PERIOD":"95.592","SITE":"AFETR","MEAN_MOTION":"15.06403779","FILE":"3112758","SEMIMAJOR_AXIS":"6925.337","MEAN_MOTION_DOT":"-0.00000062","MEAN_MOTION_DDOT":"0.0000000000000","RA_OF_ASC_NODE":"172.8434","DECAY_DATE":null,"COUNTRY_CODE":"US","OBJECT_NAME":"STARLINK-1227","GP_ID":"184471966","CLASSIFICATION_TYPE":"U","ELEMENT_SET_NO":"999","EPHEMERIS_TYPE":"0","OBJECT_TYPE":"PAYLOAD"},{"BSTAR":"0.00005074700000","ECCENTRICITY":"0.00048730","ARG_OF_PERICENTER":"288.3163","INCLINATION":"53.0328","RCS_SIZE":"LARGE","OBJECT_ID":"2020-012BF","LAUNCH_DATE":"2020-02-17","TLE_LINE1":"1 45231U 20012BF  21253.88846783  .00006512  00000-0  50747-4 0  9996","CENTER_NAME":"EARTH","NORAD_CAT_ID":"45231","TLE_LINE2":"2 45231  53.0328 137.0372 0004873 288.3163  71.7325 15.73217390 88463","PERIAPSIS":"346.432","MEAN_ANOMALY":"71.7325","TIME_SYSTEM":"UTC","REF_FRAME":"TEME","EPOCH":"2021-09-10T21:19:23.620512","REV_AT_EPOCH":"8846","APOAPSIS":"352.989","MEAN_ELEMENT_THEORY":"SGP4","SEMIMAJOR_AXIS":"6727.846","FILE":"3112758","MEAN_MOTION":"15.73217390","PERIOD":"91.532","SITE":"AFETR","EPHEMERIS_TYPE":"0","OBJECT_TYPE":"PAYLOAD","GP_ID":"184472718","CLASSIFICATION_TYPE":"U","ELEMENT_SET_NO":"999","COUNTRY_CODE":"US","OBJECT_NAME":"STARLINK-1229","DECAY_DATE":null,"RA_OF_ASC_NODE":"137.0372","MEAN_MOTION_DDOT":"0.0000000000000","MEAN_MOTION_DOT":"0.00006512"},{"SEMIMAJOR_AXIS":"6925.370","MEAN_MOTION":"15.06392862","FILE":"3112697","PERIOD":"95.593","SITE":"AFETR","EPHEMERIS_TYPE":"0","OBJECT_TYPE":"PAYLOAD","GP_ID":"184452135","CLASSIFICATION_TYPE":"U","ELEMENT_SET_NO":"999","COUNTRY_CODE":"US","OBJECT_NAME":"STARLINK-1235","DECAY_DATE":null,"RA_OF_ASC_NODE":"175.4702","MEAN_MOTION_DDOT":"0.0000000000000","MEAN_MOTION_DOT":"0.00000150","BSTAR":"0.00002899800000","ECCENTRICITY":"0.00020990","ARG_OF_PERICENTER":"57.3896","INCLINATION":"53.0541","RCS_SIZE":"LARGE","LAUNCH_DATE":"2020-02-17","OBJECT_ID":"2020-012BG","TLE_LINE1":"1 45232U 20012BG  21253.21796006  .00000150  00000-0  28998-4 0  9991","CENTER_NAME":"EARTH","TLE_LINE2":"2 45232  53.0541 175.4702 0002099  57.3896 302.7296 15.06392862 87039","NORAD_CAT_ID":"45232","PERIAPSIS":"545.782","MEAN_ANOMALY":"302.7296","TIME_SYSTEM":"UTC","REF_FRAME":"TEME","EPOCH":"2021-09-10T05:13:51.749184","REV_AT_EPOCH":"8703","APOAPSIS":"548.689","MEAN_ELEMENT_THEORY":"SGP4"},{"EPOCH":"2021-09-10T20:40:03.262368","REF_FRAME":"TEME","TIME_SYSTEM":"UTC","MEAN_ANOMALY":"303.3969","PERIAPSIS":"546.057","TLE_LINE2":"2 45233  53.0531 192.5742 0001668  56.7180 303.3969 15.06400444 87796","NORAD_CAT_ID":"45233","CENTER_NAME":"EARTH","MEAN_ELEMENT_THEORY":"SGP4","APOAPSIS":"548.367","REV_AT_EPOCH":"8779","RCS_SIZE":"LARGE","INCLINATION":"53.0531","ARG_OF_PERICENTER":"56.7180","ECCENTRICITY":"0.00016680","BSTAR":"0.00010572000000","TLE_LINE1":"1 45233U 20012BH  21253.86114887  .00001293  00000-0  10572-3 0  9991","LAUNCH_DATE":"2020-02-17","OBJECT_ID":"2020-012BH","OBJECT_NAME":"STARLINK-1238","COUNTRY_CODE":"US","ELEMENT_SET_NO":"999","CLASSIFICATION_TYPE":"U","GP_ID":"184472216","OBJECT_TYPE":"PAYLOAD","EPHEMERIS_TYPE":"0","MEAN_MOTION_DOT":"0.00001293","MEAN_MOTION_DDOT":"0.0000000000000","RA_OF_ASC_NODE":"192.5742","DECAY_DATE":null,"SEMIMAJOR_AXIS":"6925.347","SITE":"AFETR","PERIOD":"95.592","FILE":"3112758","MEAN_MOTION":"15.06400444"},{"REV_AT_EPOCH":"8750","APOAPSIS":"548.265","MEAN_ELEMENT_THEORY":"SGP4","MEAN_ANOMALY":"294.2555","CENTER_NAME":"EARTH","TLE_LINE2":"2 45234  53.0525 212.4179 0001522  65.8593 294.2555 15.06400702 87509","NORAD_CAT_ID":"45234","PERIAPSIS":"546.157","EPOCH":"2021-09-10T21:35:47.909184","TIME_SYSTEM":"UTC","REF_FRAME":"TEME","OBJECT_ID":"2020-012BJ","LAUNCH_DATE":"2020-02-17","TLE_LINE1":"1 45234U 20012BJ  21253.89986006 -.00000884  00000-0 -40441-4 0  9991","ECCENTRICITY":"0.00015220","ARG_OF_PERICENTER":"65.8593","INCLINATION":"53.0525","BSTAR":"-0.00004044100000","RCS_SIZE":"LARGE","RA_OF_ASC_NODE":"212.4179","DECAY_DATE":null,"MEAN_MOTION_DOT":"-0.00000884","MEAN_MOTION_DDOT":"0.0000000000000","OBJECT_TYPE":"PAYLOAD","EPHEMERIS_TYPE":"0","COUNTRY_CODE":"US","OBJECT_NAME":"STARLINK-1243","GP_ID":"184472466","CLASSIFICATION_TYPE":"U","ELEMENT_SET_NO":"999","PERIOD":"95.592","SITE":"AFETR","MEAN_MOTION":"15.06400702","FILE":"3112758","SEMIMAJOR_AXIS":"6925.346"},{"OBJECT_NAME":"STARLINK-1246","COUNTRY_CODE":"US","ELEMENT_SET_NO":"999","GP_ID":"184473218","CLASSIFICATION_TYPE":"U","EPHEMERIS_TYPE":"0","OBJECT_TYPE":"PAYLOAD","MEAN_MOTION_DOT":"0.00001485","MEAN_MOTION_DDOT":"0.0000000000000","RA_OF_ASC_NODE":"212.4821","DECAY_DATE":null,"SEMIMAJOR_AXIS":"6925.301","SITE":"AFETR","PERIOD":"95.591","FILE":"3112758","MEAN_MOTION":"15.06415370","EPOCH":"2021-09-10T21:14:33.335520","REF_FRAME":"TEME","TIME_SYSTEM":"UTC","MEAN_ANOMALY":"318.0103","TLE_LINE2":"2 45235  53.0545 212.4821 0001408  42.0994 318.0103 15.06415370 87557","NORAD_CAT_ID":"45235","PERIAPSIS":"546.191","CENTER_NAME":"EARTH","APOAPSIS":"548.142","MEAN_ELEMENT_THEORY":"SGP4","REV_AT_EPOCH":"8755","RCS_SIZE":"LARGE","ARG_OF_PERICENTER":"42.0994","INCLINATION":"53.0545","ECCENTRICITY":"0.00014080","BSTAR":"0.00011851000000","TLE_LINE1":"1 45235U 20012BK  21253.88510805  .00001485  00000-0  11851-3 0  9999","LAUNCH_DATE":"2020-02-17","OBJECT_ID":"2020-012BK"},{"LAUNCH_DATE":"2020-02-17","OBJECT_ID":"2020-012BL","TLE_LINE1":"1 45236U 20012BL  21253.86667647  .00000481  00000-0  51225-4 0  9990","INCLINATION":"53.0535","ARG_OF_PERICENTER":"66.9907","ECCENTRICITY":"0.00018490","BSTAR":"0.00005122500000","RCS_SIZE":"LARGE","REV_AT_EPOCH":"8808","MEAN_ELEMENT_THEORY":"SGP4","APOAPSIS":"548.506","MEAN_ANOMALY":"293.1277","NORAD_CAT_ID":"45236","TLE_LINE2":"2 45236  53.0535 172.5699 0001849  66.9907 293.1277 15.06396256 88089","PERIAPSIS":"545.945","CENTER_NAME":"EARTH","EPOCH":"2021-09-10T20:48:00.847008","REF_FRAME":"TEME","TIME_SYSTEM":"UTC","SITE":"AFETR","PERIOD":"95.592","FILE":"3112758","MEAN_MOTION":"15.06396256","SEMIMAJOR_AXIS":"6925.360","RA_OF_ASC_NODE":"172.5699","DECAY_DATE":null,"MEAN_MOTION_DOT":"0.00000481","MEAN_MOTION_DDOT":"0.0000000000000","OBJECT_TYPE":"PAYLOAD","EPHEMERIS_TYPE":"0","OBJECT_NAME":"STARLINK-1247","COUNTRY_CODE":"US","ELEMENT_SET_NO":"999","CLASSIFICATION_TYPE":"U","GP_ID":"184472969"}];
